<?xml version="1.0"?><gpx version="1.1" xmlns="http://www.topografix.com/GPX/1/1"><trk><name>test</name><trkseg>
<trkpt lat="35.4192210" lon="-83.8893072"><time>2026-07-29T09:00:00Z</time></trkpt>
<trkpt lat="35.4194015" lon="-83.8894590"><time>2026-07-29T09:00:01.733792Z</time></trkpt>
<trkpt lat="35.4196923" lon="-83.8898014"><time>2026-07-29T09:00:04.897256Z</time></trkpt>
<trkpt lat="35.4204478" lon="-83.8911827"><time>2026-07-29T09:00:15.424662Z</time></trkpt>
<trkpt lat="35.4210745" lon="-83.8924210"><time>2026-07-29T09:00:24.595483Z</time></trkpt>
<trkpt lat="35.4216464" lon="-83.8939318"><time>2026-07-29T09:00:34.995469Z</time></trkpt>
<trkpt lat="35.4218678" lon="-83.8943043"><time>2026-07-29T09:00:37.873491Z</time></trkpt>
<trkpt lat="35.4221331" lon="-83.8945255"><time>2026-07-29T09:00:40.341355Z</time></trkpt>
<trkpt lat="35.4227082" lon="-83.8947110"><time>2026-07-29T09:00:44.925812Z</time></trkpt>
<trkpt lat="35.4235854" lon="-83.8949892"><time>2026-07-29T09:00:51.878343Z</time></trkpt>
<trkpt lat="35.4241967" lon="-83.8953211"><time>2026-07-29T09:00:56.970024Z</time></trkpt>
<trkpt lat="35.4246790" lon="-83.8956377"><time>2026-07-29T09:01:01.110431Z</time></trkpt>
<trkpt lat="35.4249650" lon="-83.8959473"><time>2026-07-29T09:01:03.967327Z</time></trkpt>
<trkpt lat="35.4252695" lon="-83.8965616"><time>2026-07-29T09:01:08.301527Z</time></trkpt>
<trkpt lat="35.4255190" lon="-83.8973155"><time>2026-07-29T09:01:13.167006Z</time></trkpt>
<trkpt lat="35.4255079" lon="-83.8977737"><time>2026-07-29T09:01:15.885110Z</time></trkpt>
<trkpt lat="35.4253114" lon="-83.8983055"><time>2026-07-29T09:01:19.348857Z</time></trkpt>
<trkpt lat="35.4249602" lon="-83.8988838"><time>2026-07-29T09:01:23.630952Z</time></trkpt>
<trkpt lat="35.4245884" lon="-83.8993195"><time>2026-07-29T09:01:27.377858Z</time></trkpt>
<trkpt lat="35.4241812" lon="-83.8996248"><time>2026-07-29T09:01:30.860712Z</time></trkpt>
<trkpt lat="35.4234134" lon="-83.9000262"><time>2026-07-29T09:01:36.946490Z</time></trkpt>
<trkpt lat="35.4229497" lon="-83.9003982"><time>2026-07-29T09:01:40.954144Z</time></trkpt>
<trkpt lat="35.4226900" lon="-83.9008467"><time>2026-07-29T09:01:44.152487Z</time></trkpt>
<trkpt lat="35.4225824" lon="-83.9014107"><time>2026-07-29T09:01:47.480140Z</time></trkpt>
<trkpt lat="35.4226532" lon="-83.9020516"><time>2026-07-29T09:01:51.177919Z</time></trkpt>
<trkpt lat="35.4230238" lon="-83.9026753"><time>2026-07-29T09:01:55.615322Z</time></trkpt>
<trkpt lat="35.4237201" lon="-83.9035042"><time>2026-07-29T09:02:02.465507Z</time></trkpt>
<trkpt lat="35.4246636" lon="-83.9052087"><time>2026-07-29T09:02:14.215021Z</time></trkpt>
<trkpt lat="35.4251555" lon="-83.9059667"><time>2026-07-29T09:02:19.732012Z</time></trkpt>
<trkpt lat="35.4255955" lon="-83.9062829"><time>2026-07-29T09:02:23.317229Z</time></trkpt>
<trkpt lat="35.4260700" lon="-83.9064051"><time>2026-07-29T09:02:26.734450Z</time></trkpt>
<trkpt lat="35.4271908" lon="-83.9063173"><time>2026-07-29T09:02:34.632428Z</time></trkpt>
<trkpt lat="35.4284800" lon="-83.9061718"><time>2026-07-29T09:02:43.706957Z</time></trkpt>
<trkpt lat="35.4288990" lon="-83.9061700"><time>2026-07-29T09:02:46.635467Z</time></trkpt>
<trkpt lat="35.4293739" lon="-83.9062615"><time>2026-07-29T09:02:49.983092Z</time></trkpt>
<trkpt lat="35.4298095" lon="-83.9064326"><time>2026-07-29T09:02:53.152999Z</time></trkpt>
<trkpt lat="35.4303130" lon="-83.9067407"><time>2026-07-29T09:02:57.030287Z</time></trkpt>
<trkpt lat="35.4306295" lon="-83.9070115"><time>2026-07-29T09:02:59.672790Z</time></trkpt>
<trkpt lat="35.4310156" lon="-83.9073679"><time>2026-07-29T09:03:02.969887Z</time></trkpt>
<trkpt lat="35.4314255" lon="-83.9076096"><time>2026-07-29T09:03:06.080104Z</time></trkpt>
<trkpt lat="35.4317583" lon="-83.9077938"><time>2026-07-29T09:03:08.572108Z</time></trkpt>
<trkpt lat="35.4320143" lon="-83.9080813"><time>2026-07-29T09:03:10.916868Z</time></trkpt>
<trkpt lat="35.4321725" lon="-83.9084617"><time>2026-07-29T09:03:13.241238Z</time></trkpt>
<trkpt lat="35.4326340" lon="-83.9107531"><time>2026-07-29T09:03:26.006198Z</time></trkpt>
<trkpt lat="35.4328070" lon="-83.9114022"><time>2026-07-29T09:03:29.695982Z</time></trkpt>
<trkpt lat="35.4329612" lon="-83.9116959"><time>2026-07-29T09:03:31.590291Z</time></trkpt>
<trkpt lat="35.4331937" lon="-83.9119925"><time>2026-07-29T09:03:33.829075Z</time></trkpt>
<trkpt lat="35.4334670" lon="-83.9122126"><time>2026-07-29T09:03:36.020471Z</time></trkpt>
<trkpt lat="35.4338177" lon="-83.9123884"><time>2026-07-29T09:03:38.566626Z</time></trkpt>
<trkpt lat="35.4343488" lon="-83.9125974"><time>2026-07-29T09:03:42.314345Z</time></trkpt>
<trkpt lat="35.4348077" lon="-83.9128318"><time>2026-07-29T09:03:45.644554Z</time></trkpt>
<trkpt lat="35.4352350" lon="-83.9131020"><time>2026-07-29T09:03:48.855252Z</time></trkpt>
<trkpt lat="35.4358170" lon="-83.9134720"><time>2026-07-29T09:03:53.227505Z</time></trkpt>
<trkpt lat="35.4366115" lon="-83.9141645"><time>2026-07-29T09:03:59.698593Z</time></trkpt>
<trkpt lat="35.4375238" lon="-83.9154845"><time>2026-07-29T09:04:08.991338Z</time></trkpt>
<trkpt lat="35.4378515" lon="-83.9161648"><time>2026-07-29T09:04:13.211457Z</time></trkpt>
<trkpt lat="35.4380645" lon="-83.9167547"><time>2026-07-29T09:04:16.644897Z</time></trkpt>
<trkpt lat="35.4382177" lon="-83.9173687"><time>2026-07-29T09:04:20.051847Z</time></trkpt>
<trkpt lat="35.4383947" lon="-83.9184576"><time>2026-07-29T09:04:25.931240Z</time></trkpt>
<trkpt lat="35.4386584" lon="-83.9203128"><time>2026-07-29T09:04:35.894992Z</time></trkpt>
<trkpt lat="35.4386276" lon="-83.9210271"><time>2026-07-29T09:04:39.674958Z</time></trkpt>
<trkpt lat="35.4383034" lon="-83.9220798"><time>2026-07-29T09:04:45.640354Z</time></trkpt>
<trkpt lat="35.4381140" lon="-83.9228077"><time>2026-07-29T09:04:49.686081Z</time></trkpt>
<trkpt lat="35.4380684" lon="-83.9233583"><time>2026-07-29T09:04:52.609174Z</time></trkpt>
<trkpt lat="35.4381041" lon="-83.9239452"><time>2026-07-29T09:04:55.717118Z</time></trkpt>
<trkpt lat="35.4384137" lon="-83.9252738"><time>2026-07-29T09:05:03.029403Z</time></trkpt>
<trkpt lat="35.4385906" lon="-83.9257977"><time>2026-07-29T09:05:06.036776Z</time></trkpt>
<trkpt lat="35.4388612" lon="-83.9262335"><time>2026-07-29T09:05:08.961081Z</time></trkpt>
<trkpt lat="35.4391988" lon="-83.9265663"><time>2026-07-29T09:05:11.817269Z</time></trkpt>
<trkpt lat="35.4396540" lon="-83.9269002"><time>2026-07-29T09:05:15.329132Z</time></trkpt>
<trkpt lat="35.4399707" lon="-83.9272272"><time>2026-07-29T09:05:18.060304Z</time></trkpt>
<trkpt lat="35.4401916" lon="-83.9275789"><time>2026-07-29T09:05:20.435773Z</time></trkpt>
<trkpt lat="35.4403018" lon="-83.9279449"><time>2026-07-29T09:05:22.510112Z</time></trkpt>
<trkpt lat="35.4404608" lon="-83.9289829"><time>2026-07-29T09:05:28.116553Z</time></trkpt>
<trkpt lat="35.4405722" lon="-83.9301235"><time>2026-07-29T09:05:34.217124Z</time></trkpt>
<trkpt lat="35.4405358" lon="-83.9309556"><time>2026-07-29T09:05:38.645879Z</time></trkpt>
<trkpt lat="35.4402678" lon="-83.9327156"><time>2026-07-29T09:05:48.181509Z</time></trkpt>
<trkpt lat="35.4401950" lon="-83.9339854"><time>2026-07-29T09:05:54.964267Z</time></trkpt>
<trkpt lat="35.4402388" lon="-83.9350085"><time>2026-07-29T09:06:00.430662Z</time></trkpt>
<trkpt lat="35.4403560" lon="-83.9354448"><time>2026-07-29T09:06:02.892115Z</time></trkpt>
<trkpt lat="35.4406185" lon="-83.9359295"><time>2026-07-29T09:06:06.033657Z</time></trkpt>
<trkpt lat="35.4409406" lon="-83.9362842"><time>2026-07-29T09:06:08.925043Z</time></trkpt>
<trkpt lat="35.4414117" lon="-83.9366095"><time>2026-07-29T09:06:12.563418Z</time></trkpt>
<trkpt lat="35.4420210" lon="-83.9368168"><time>2026-07-29T09:06:16.846792Z</time></trkpt>
<trkpt lat="35.4427556" lon="-83.9369617"><time>2026-07-29T09:06:21.903565Z</time></trkpt>
<trkpt lat="35.4431074" lon="-83.9370355"><time>2026-07-29T09:06:24.334148Z</time></trkpt>
<trkpt lat="35.4433194" lon="-83.9371482"><time>2026-07-29T09:06:25.905540Z</time></trkpt>
<trkpt lat="35.4435478" lon="-83.9373654"><time>2026-07-29T09:06:27.863783Z</time></trkpt>
<trkpt lat="35.4437761" lon="-83.9376470"><time>2026-07-29T09:06:30.055076Z</time></trkpt>
<trkpt lat="35.4441762" lon="-83.9378936"><time>2026-07-29T09:06:33.118623Z</time></trkpt>
<trkpt lat="35.4446662" lon="-83.9381133"><time>2026-07-29T09:06:36.705491Z</time></trkpt>
<trkpt lat="35.4448778" lon="-83.9380869"><time>2026-07-29T09:06:38.176016Z</time></trkpt>
<trkpt lat="35.4452632" lon="-83.9379418"><time>2026-07-29T09:06:40.965259Z</time></trkpt>
<trkpt lat="35.4455378" lon="-83.9379753"><time>2026-07-29T09:06:42.883947Z</time></trkpt>
<trkpt lat="35.4458017" lon="-83.9381527"><time>2026-07-29T09:06:44.969810Z</time></trkpt>
<trkpt lat="35.4461688" lon="-83.9385309"><time>2026-07-29T09:06:48.286028Z</time></trkpt>
<trkpt lat="35.4465647" lon="-83.9390603"><time>2026-07-29T09:06:52.335343Z</time></trkpt>
<trkpt lat="35.4471027" lon="-83.9397820"><time>2026-07-29T09:06:57.865018Z</time></trkpt>
<trkpt lat="35.4478733" lon="-83.9403720"><time>2026-07-29T09:07:04.232899Z</time></trkpt>
<trkpt lat="35.4483724" lon="-83.9407733"><time>2026-07-29T09:07:08.428075Z</time></trkpt>
<trkpt lat="35.4487175" lon="-83.9409645"><time>2026-07-29T09:07:11.108925Z</time></trkpt>
<trkpt lat="35.4501826" lon="-83.9414122"><time>2026-07-29T09:07:21.868807Z</time></trkpt>
<trkpt lat="35.4503754" lon="-83.9413077"><time>2026-07-29T09:07:23.372046Z</time></trkpt>
<trkpt lat="35.4504425" lon="-83.9410978"><time>2026-07-29T09:07:24.662129Z</time></trkpt>
<trkpt lat="35.4503923" lon="-83.9408513"><time>2026-07-29T09:07:26.118333Z</time></trkpt>
<trkpt lat="35.4497666" lon="-83.9398008"><time>2026-07-29T09:07:33.665365Z</time></trkpt>
<trkpt lat="35.4494667" lon="-83.9391998"><time>2026-07-29T09:07:37.760299Z</time></trkpt>
<trkpt lat="35.4493009" lon="-83.9388148"><time>2026-07-29T09:07:40.296854Z</time></trkpt>
<trkpt lat="35.4492941" lon="-83.9381963"><time>2026-07-29T09:07:43.892546Z</time></trkpt>
<trkpt lat="35.4491713" lon="-83.9378505"><time>2026-07-29T09:07:46.104251Z</time></trkpt>
<trkpt lat="35.4491092" lon="-83.9375785"><time>2026-07-29T09:07:47.763408Z</time></trkpt>
<trkpt lat="35.4492558" lon="-83.9370111"><time>2026-07-29T09:07:51.276400Z</time></trkpt>
<trkpt lat="35.4492503" lon="-83.9365194"><time>2026-07-29T09:07:54.183704Z</time></trkpt>
<trkpt lat="35.4492522" lon="-83.9357144"><time>2026-07-29T09:07:58.963942Z</time></trkpt>
<trkpt lat="35.4493415" lon="-83.9353351"><time>2026-07-29T09:08:01.323969Z</time></trkpt>
<trkpt lat="35.4501518" lon="-83.9339090"><time>2026-07-29T09:08:11.836328Z</time></trkpt>
<trkpt lat="35.4504446" lon="-83.9326216"><time>2026-07-29T09:08:19.897574Z</time></trkpt>
<trkpt lat="35.4509898" lon="-83.9319761"><time>2026-07-29T09:08:25.600692Z</time></trkpt>
<trkpt lat="35.4510816" lon="-83.9316543"><time>2026-07-29T09:08:27.678301Z</time></trkpt>
<trkpt lat="35.4507770" lon="-83.9312232"><time>2026-07-29T09:08:31.202885Z</time></trkpt>
<trkpt lat="35.4506110" lon="-83.9307967"><time>2026-07-29T09:08:34.116651Z</time></trkpt>
<trkpt lat="35.4505529" lon="-83.9302702"><time>2026-07-29T09:08:37.392265Z</time></trkpt>
<trkpt lat="35.4506503" lon="-83.9298070"><time>2026-07-29T09:08:40.359542Z</time></trkpt>
<trkpt lat="35.4508369" lon="-83.9295675"><time>2026-07-29T09:08:42.448930Z</time></trkpt>
<trkpt lat="35.4513538" lon="-83.9290882"><time>2026-07-29T09:08:47.508784Z</time></trkpt>
<trkpt lat="35.4537884" lon="-83.9260832"><time>2026-07-29T09:09:14.507354Z</time></trkpt>
<trkpt lat="35.4542854" lon="-83.9256348"><time>2026-07-29T09:09:19.374707Z</time></trkpt>
<trkpt lat="35.4547038" lon="-83.9254197"><time>2026-07-29T09:09:22.991713Z</time></trkpt>
<trkpt lat="35.4551430" lon="-83.9252263"><time>2026-07-29T09:09:26.734547Z</time></trkpt>
<trkpt lat="35.4553567" lon="-83.9249828"><time>2026-07-29T09:09:29.063293Z</time></trkpt>
<trkpt lat="35.4557042" lon="-83.9243537"><time>2026-07-29T09:09:34.003694Z</time></trkpt>
<trkpt lat="35.4561630" lon="-83.9238172"><time>2026-07-29T09:09:39.114272Z</time></trkpt>
<trkpt lat="35.4566575" lon="-83.9233825"><time>2026-07-29T09:09:44.063035Z</time></trkpt>
<trkpt lat="35.4574514" lon="-83.9229697"><time>2026-07-29T09:09:51.149399Z</time></trkpt>
<trkpt lat="35.4578003" lon="-83.9229441"><time>2026-07-29T09:09:54.048261Z</time></trkpt>
<trkpt lat="35.4579755" lon="-83.9228905"><time>2026-07-29T09:09:55.551250Z</time></trkpt>
<trkpt lat="35.4582394" lon="-83.9225923"><time>2026-07-29T09:09:58.520210Z</time></trkpt>
<trkpt lat="35.4587507" lon="-83.9222158"><time>2026-07-29T09:10:03.506716Z</time></trkpt>
<trkpt lat="35.4592884" lon="-83.9219431"><time>2026-07-29T09:10:08.412737Z</time></trkpt>
<trkpt lat="35.4597240" lon="-83.9220863"><time>2026-07-29T09:10:12.242864Z</time></trkpt>
<trkpt lat="35.4601338" lon="-83.9228413"><time>2026-07-29T09:10:18.446313Z</time></trkpt>
<trkpt lat="35.4602640" lon="-83.9229517"><time>2026-07-29T09:10:19.794729Z</time></trkpt>
<trkpt lat="35.4603805" lon="-83.9229462"><time>2026-07-29T09:10:20.801794Z</time></trkpt>
<trkpt lat="35.4605031" lon="-83.9228454"><time>2026-07-29T09:10:22.072301Z</time></trkpt>
<trkpt lat="35.4607200" lon="-83.9224657"><time>2026-07-29T09:10:25.309443Z</time></trkpt>
<trkpt lat="35.4612812" lon="-83.9217462"><time>2026-07-29T09:10:32.325589Z</time></trkpt>
<trkpt lat="35.4614051" lon="-83.9216421"><time>2026-07-29T09:10:33.637296Z</time></trkpt>
<trkpt lat="35.4616700" lon="-83.9216464"><time>2026-07-29T09:10:35.982916Z</time></trkpt>
<trkpt lat="35.4618603" lon="-83.9216094"><time>2026-07-29T09:10:37.695962Z</time></trkpt>
<trkpt lat="35.4622594" lon="-83.9214150"><time>2026-07-29T09:10:41.520397Z</time></trkpt>
<trkpt lat="35.4623797" lon="-83.9212898"><time>2026-07-29T09:10:42.921175Z</time></trkpt>
<trkpt lat="35.4624221" lon="-83.9211408"><time>2026-07-29T09:10:44.053670Z</time></trkpt>
<trkpt lat="35.4624191" lon="-83.9207263"><time>2026-07-29T09:10:47.032707Z</time></trkpt>
<trkpt lat="35.4624698" lon="-83.9205627"><time>2026-07-29T09:10:48.300841Z</time></trkpt>
<trkpt lat="35.4625961" lon="-83.9203830"><time>2026-07-29T09:10:50.042362Z</time></trkpt>
<trkpt lat="35.4629424" lon="-83.9199771"><time>2026-07-29T09:10:54.385599Z</time></trkpt>
<trkpt lat="35.4630801" lon="-83.9198835"><time>2026-07-29T09:10:55.828959Z</time></trkpt>
<trkpt lat="35.4632409" lon="-83.9198986"><time>2026-07-29T09:10:57.323162Z</time></trkpt>
<trkpt lat="35.4645317" lon="-83.9207565"><time>2026-07-29T09:11:10.899895Z</time></trkpt>
<trkpt lat="35.4647782" lon="-83.9209207"><time>2026-07-29T09:11:13.504481Z</time></trkpt>
<trkpt lat="35.4649706" lon="-83.9208357"><time>2026-07-29T09:11:15.416845Z</time></trkpt>
<trkpt lat="35.4651826" lon="-83.9203111"><time>2026-07-29T09:11:19.813039Z</time></trkpt>
<trkpt lat="35.4653596" lon="-83.9200685"><time>2026-07-29T09:11:22.283960Z</time></trkpt>
<trkpt lat="35.4655758" lon="-83.9199255"><time>2026-07-29T09:11:24.600268Z</time></trkpt>
<trkpt lat="35.4658364" lon="-83.9198700"><time>2026-07-29T09:11:27.116972Z</time></trkpt>
<trkpt lat="35.4661178" lon="-83.9198900"><time>2026-07-29T09:11:29.810259Z</time></trkpt>
<trkpt lat="35.4665290" lon="-83.9200139"><time>2026-07-29T09:11:33.863870Z</time></trkpt>
<trkpt lat="35.4670152" lon="-83.9200036"><time>2026-07-29T09:11:38.541582Z</time></trkpt>
<trkpt lat="35.4676650" lon="-83.9200358"><time>2026-07-29T09:11:44.816960Z</time></trkpt>
<trkpt lat="35.4683248" lon="-83.9201023"><time>2026-07-29T09:11:51.223676Z</time></trkpt>
<trkpt lat="35.4684109" lon="-83.9201674"><time>2026-07-29T09:11:52.198142Z</time></trkpt>
<trkpt lat="35.4685087" lon="-83.9203275"><time>2026-07-29T09:11:53.757936Z</time></trkpt>
<trkpt lat="35.4687969" lon="-83.9209903"><time>2026-07-29T09:11:59.607362Z</time></trkpt>
<trkpt lat="35.4689521" lon="-83.9212651"><time>2026-07-29T09:12:02.224711Z</time></trkpt>
<trkpt lat="35.4690855" lon="-83.9214026"><time>2026-07-29T09:12:03.914431Z</time></trkpt>
<trkpt lat="35.4695379" lon="-83.9216589"><time>2026-07-29T09:12:08.789678Z</time></trkpt>
<trkpt lat="35.4697972" lon="-83.9217615"><time>2026-07-29T09:12:11.466815Z</time></trkpt>
<trkpt lat="35.4698985" lon="-83.9217464"><time>2026-07-29T09:12:12.473661Z</time></trkpt>
<trkpt lat="35.4699722" lon="-83.9216765"><time>2026-07-29T09:12:13.385488Z</time></trkpt>
<trkpt lat="35.4700063" lon="-83.9215568"><time>2026-07-29T09:12:14.384313Z</time></trkpt>
<trkpt lat="35.4699470" lon="-83.9212855"><time>2026-07-29T09:12:16.597660Z</time></trkpt>
<trkpt lat="35.4699430" lon="-83.9211276"><time>2026-07-29T09:12:17.841877Z</time></trkpt>
<trkpt lat="35.4700177" lon="-83.9209618"><time>2026-07-29T09:12:19.345667Z</time></trkpt>
<trkpt lat="35.4702109" lon="-83.9207677"><time>2026-07-29T09:12:21.805040Z</time></trkpt>
<trkpt lat="35.4703876" lon="-83.9206821"><time>2026-07-29T09:12:23.691539Z</time></trkpt>
<trkpt lat="35.4707463" lon="-83.9205777"><time>2026-07-29T09:12:27.363318Z</time></trkpt>
<trkpt lat="35.4711803" lon="-83.9204075"><time>2026-07-29T09:12:31.899366Z</time></trkpt>
<trkpt lat="35.4717052" lon="-83.9203536"><time>2026-07-29T09:12:37.157907Z</time></trkpt>
<trkpt lat="35.4719420" lon="-83.9203624"><time>2026-07-29T09:12:39.524152Z</time></trkpt>
<trkpt lat="35.4724135" lon="-83.9205557"><time>2026-07-29T09:12:44.476890Z</time></trkpt>
<trkpt lat="35.4728060" lon="-83.9208508"><time>2026-07-29T09:12:49.041587Z</time></trkpt>
<trkpt lat="35.4731371" lon="-83.9212328"><time>2026-07-29T09:12:53.523439Z</time></trkpt>
<trkpt lat="35.4732726" lon="-83.9212746"><time>2026-07-29T09:12:54.916296Z</time></trkpt>
<trkpt lat="35.4734013" lon="-83.9212282"><time>2026-07-29T09:12:56.252216Z</time></trkpt>
<trkpt lat="35.4736196" lon="-83.9210553"><time>2026-07-29T09:12:58.823243Z</time></trkpt>
<trkpt lat="35.4738755" lon="-83.9208336"><time>2026-07-29T09:13:01.917293Z</time></trkpt>
<trkpt lat="35.4739872" lon="-83.9206536"><time>2026-07-29T09:13:03.721737Z</time></trkpt>
<trkpt lat="35.4741206" lon="-83.9203872"><time>2026-07-29T09:13:06.206358Z</time></trkpt>
<trkpt lat="35.4742693" lon="-83.9203344"><time>2026-07-29T09:13:07.740970Z</time></trkpt>
<trkpt lat="35.4745453" lon="-83.9204403"><time>2026-07-29T09:13:10.602852Z</time></trkpt>
<trkpt lat="35.4747038" lon="-83.9204462"><time>2026-07-29T09:13:12.173494Z</time></trkpt>
<trkpt lat="35.4749016" lon="-83.9203599"><time>2026-07-29T09:13:14.243133Z</time></trkpt>
<trkpt lat="35.4750695" lon="-83.9203329"><time>2026-07-29T09:13:15.913788Z</time></trkpt>
<trkpt lat="35.4754149" lon="-83.9203980"><time>2026-07-29T09:13:19.354090Z</time></trkpt>
<trkpt lat="35.4758178" lon="-83.9203859"><time>2026-07-29T09:13:23.315798Z</time></trkpt>
<trkpt lat="35.4759202" lon="-83.9203066"><time>2026-07-29T09:13:24.494329Z</time></trkpt>
<trkpt lat="35.4759754" lon="-83.9202086"><time>2026-07-29T09:13:25.426877Z</time></trkpt>
<trkpt lat="35.4759822" lon="-83.9199878"><time>2026-07-29T09:13:27.136652Z</time></trkpt>
<trkpt lat="35.4758823" lon="-83.9191056"><time>2026-07-29T09:13:34.013876Z</time></trkpt>
<trkpt lat="35.4758699" lon="-83.9186320"><time>2026-07-29T09:13:37.660581Z</time></trkpt>
<trkpt lat="35.4757476" lon="-83.9181496"><time>2026-07-29T09:13:41.546908Z</time></trkpt>
<trkpt lat="35.4757987" lon="-83.9180040"><time>2026-07-29T09:13:42.765043Z</time></trkpt>
<trkpt lat="35.4759744" lon="-83.9179545"><time>2026-07-29T09:13:44.496804Z</time></trkpt>
<trkpt lat="35.4761131" lon="-83.9180526"><time>2026-07-29T09:13:46.021448Z</time></trkpt>
<trkpt lat="35.4762594" lon="-83.9182619"><time>2026-07-29T09:13:48.135305Z</time></trkpt>
<trkpt lat="35.4763262" lon="-83.9185118"><time>2026-07-29T09:13:50.126195Z</time></trkpt>
<trkpt lat="35.4763448" lon="-83.9193460"><time>2026-07-29T09:13:56.403580Z</time></trkpt>
<trkpt lat="35.4764244" lon="-83.9196076"><time>2026-07-29T09:13:58.503520Z</time></trkpt>
<trkpt lat="35.4768244" lon="-83.9202455"><time>2026-07-29T09:14:04.575583Z</time></trkpt>
<trkpt lat="35.4770184" lon="-83.9205965"><time>2026-07-29T09:14:07.757621Z</time></trkpt>
<trkpt lat="35.4770151" lon="-83.9210943"><time>2026-07-29T09:14:11.445015Z</time></trkpt>
<trkpt lat="35.4770349" lon="-83.9214849"><time>2026-07-29T09:14:14.332335Z</time></trkpt>
<trkpt lat="35.4771368" lon="-83.9227124"><time>2026-07-29T09:14:23.399177Z</time></trkpt>
<trkpt lat="35.4770701" lon="-83.9239108"><time>2026-07-29T09:14:32.187186Z</time></trkpt>
<trkpt lat="35.4772465" lon="-83.9248939"><time>2026-07-29T09:14:39.528723Z</time></trkpt>
<trkpt lat="35.4773277" lon="-83.9251399"><time>2026-07-29T09:14:41.461041Z</time></trkpt>
<trkpt lat="35.4774421" lon="-83.9253081"><time>2026-07-29T09:14:43.060925Z</time></trkpt>
<trkpt lat="35.4775889" lon="-83.9253901"><time>2026-07-29T09:14:44.516274Z</time></trkpt>
<trkpt lat="35.4778858" lon="-83.9254287"><time>2026-07-29T09:14:47.209432Z</time></trkpt>
<trkpt lat="35.4780303" lon="-83.9255149"><time>2026-07-29T09:14:48.645026Z</time></trkpt>
<trkpt lat="35.4780692" lon="-83.9255868"><time>2026-07-29T09:14:49.261901Z</time></trkpt>
<trkpt lat="35.4780845" lon="-83.9256719"><time>2026-07-29T09:14:49.877350Z</time></trkpt>
<trkpt lat="35.4780647" lon="-83.9257958"><time>2026-07-29T09:14:50.764507Z</time></trkpt>
<trkpt lat="35.4776749" lon="-83.9270206"><time>2026-07-29T09:14:59.983413Z</time></trkpt>
<trkpt lat="35.4776389" lon="-83.9273474"><time>2026-07-29T09:15:02.276793Z</time></trkpt>
<trkpt lat="35.4776554" lon="-83.9281433"><time>2026-07-29T09:15:07.783656Z</time></trkpt>
<trkpt lat="35.4777209" lon="-83.9284941"><time>2026-07-29T09:15:10.264052Z</time></trkpt>
<trkpt lat="35.4779931" lon="-83.9293437"><time>2026-07-29T09:15:16.539306Z</time></trkpt>
<trkpt lat="35.4780832" lon="-83.9295118"><time>2026-07-29T09:15:17.921903Z</time></trkpt>
<trkpt lat="35.4782389" lon="-83.9296391"><time>2026-07-29T09:15:19.508584Z</time></trkpt>
<trkpt lat="35.4785180" lon="-83.9297804"><time>2026-07-29T09:15:22.067343Z</time></trkpt>
<trkpt lat="35.4786108" lon="-83.9299343"><time>2026-07-29T09:15:23.364969Z</time></trkpt>
<trkpt lat="35.4786413" lon="-83.9303501"><time>2026-07-29T09:15:26.153107Z</time></trkpt>
<trkpt lat="35.4786936" lon="-83.9305784"><time>2026-07-29T09:15:27.731753Z</time></trkpt>
<trkpt lat="35.4788946" lon="-83.9309060"><time>2026-07-29T09:15:30.469602Z</time></trkpt>
<trkpt lat="35.4789199" lon="-83.9310910"><time>2026-07-29T09:15:31.704048Z</time></trkpt>
<trkpt lat="35.4788957" lon="-83.9316099"><time>2026-07-29T09:15:35.104618Z</time></trkpt>
<trkpt lat="35.4789491" lon="-83.9319663"><time>2026-07-29T09:15:37.465443Z</time></trkpt>
<trkpt lat="35.4790724" lon="-83.9323038"><time>2026-07-29T09:15:39.871937Z</time></trkpt>
<trkpt lat="35.4793822" lon="-83.9329598"><time>2026-07-29T09:15:44.791665Z</time></trkpt>
<trkpt lat="35.4794615" lon="-83.9330674"><time>2026-07-29T09:15:45.733450Z</time></trkpt>
<trkpt lat="35.4795575" lon="-83.9331036"><time>2026-07-29T09:15:46.539582Z</time></trkpt>
<trkpt lat="35.4796744" lon="-83.9330822"><time>2026-07-29T09:15:47.485182Z</time></trkpt>
<trkpt lat="35.4800609" lon="-83.9328790"><time>2026-07-29T09:15:50.820449Z</time></trkpt>
<trkpt lat="35.4802730" lon="-83.9326982"><time>2026-07-29T09:15:52.849374Z</time></trkpt>
<trkpt lat="35.4804484" lon="-83.9325176"><time>2026-07-29T09:15:54.635064Z</time></trkpt>
<trkpt lat="35.4805522" lon="-83.9324570"><time>2026-07-29T09:15:55.532722Z</time></trkpt>
<trkpt lat="35.4806812" lon="-83.9324777"><time>2026-07-29T09:15:56.548325Z</time></trkpt>
<trkpt lat="35.4807526" lon="-83.9325579"><time>2026-07-29T09:15:57.291408Z</time></trkpt>
<trkpt lat="35.4809040" lon="-83.9328530"><time>2026-07-29T09:15:59.446944Z</time></trkpt>
<trkpt lat="35.4810148" lon="-83.9329284"><time>2026-07-29T09:16:00.416153Z</time></trkpt>
<trkpt lat="35.4812150" lon="-83.9329614"><time>2026-07-29T09:16:01.963195Z</time></trkpt>
<trkpt lat="35.4817518" lon="-83.9329974"><time>2026-07-29T09:16:06.063008Z</time></trkpt>
<trkpt lat="35.4818806" lon="-83.9331281"><time>2026-07-29T09:16:07.317959Z</time></trkpt>
<trkpt lat="35.4820408" lon="-83.9334549"><time>2026-07-29T09:16:09.619970Z</time></trkpt>
<trkpt lat="35.4825970" lon="-83.9339509"><time>2026-07-29T09:16:14.744531Z</time></trkpt>
<trkpt lat="35.4828438" lon="-83.9341722"><time>2026-07-29T09:16:17.012509Z</time></trkpt>
<trkpt lat="35.4829406" lon="-83.9342137"><time>2026-07-29T09:16:17.774913Z</time></trkpt>
<trkpt lat="35.4830550" lon="-83.9341927"><time>2026-07-29T09:16:18.633273Z</time></trkpt>
<trkpt lat="35.4831537" lon="-83.9340962"><time>2026-07-29T09:16:19.556544Z</time></trkpt>
<trkpt lat="35.4832895" lon="-83.9337954"><time>2026-07-29T09:16:21.576990Z</time></trkpt>
<trkpt lat="35.4833992" lon="-83.9335800"><time>2026-07-29T09:16:23.065155Z</time></trkpt>
<trkpt lat="35.4835162" lon="-83.9334399"><time>2026-07-29T09:16:24.243200Z</time></trkpt>
<trkpt lat="35.4836755" lon="-83.9333389"><time>2026-07-29T09:16:25.539960Z</time></trkpt>
<trkpt lat="35.4840131" lon="-83.9332331"><time>2026-07-29T09:16:28.060158Z</time></trkpt>
<trkpt lat="35.4842035" lon="-83.9331338"><time>2026-07-29T09:16:29.547094Z</time></trkpt>
<trkpt lat="35.4843324" lon="-83.9329355"><time>2026-07-29T09:16:31.008774Z</time></trkpt>
<trkpt lat="35.4843560" lon="-83.9326878"><time>2026-07-29T09:16:32.425586Z</time></trkpt>
<trkpt lat="35.4843137" lon="-83.9324029"><time>2026-07-29T09:16:34.065722Z</time></trkpt>
<trkpt lat="35.4841616" lon="-83.9319307"><time>2026-07-29T09:16:36.939606Z</time></trkpt>
<trkpt lat="35.4840527" lon="-83.9317411"><time>2026-07-29T09:16:38.255198Z</time></trkpt>
<trkpt lat="35.4838947" lon="-83.9315949"><time>2026-07-29T09:16:39.639389Z</time></trkpt>
<trkpt lat="35.4836887" lon="-83.9312535"><time>2026-07-29T09:16:42.034162Z</time></trkpt>
<trkpt lat="35.4836366" lon="-83.9310715"><time>2026-07-29T09:16:43.110784Z</time></trkpt>
<trkpt lat="35.4836561" lon="-83.9309450"><time>2026-07-29T09:16:43.825567Z</time></trkpt>
<trkpt lat="35.4837296" lon="-83.9308603"><time>2026-07-29T09:16:44.519975Z</time></trkpt>
<trkpt lat="35.4839456" lon="-83.9307880"><time>2026-07-29T09:16:46.074155Z</time></trkpt>
<trkpt lat="35.4840505" lon="-83.9307272"><time>2026-07-29T09:16:46.874736Z</time></trkpt>
<trkpt lat="35.4841165" lon="-83.9306394"><time>2026-07-29T09:16:47.538102Z</time></trkpt>
<trkpt lat="35.4843499" lon="-83.9302200"><time>2026-07-29T09:16:50.340007Z</time></trkpt>
<trkpt lat="35.4844762" lon="-83.9301540"><time>2026-07-29T09:16:51.280490Z</time></trkpt>
<trkpt lat="35.4845648" lon="-83.9301748"><time>2026-07-29T09:16:51.898935Z</time></trkpt>
<trkpt lat="35.4846479" lon="-83.9302682"><time>2026-07-29T09:16:52.660916Z</time></trkpt>
<trkpt lat="35.4847711" lon="-83.9307908"><time>2026-07-29T09:16:55.613248Z</time></trkpt>
<trkpt lat="35.4849835" lon="-83.9314811"><time>2026-07-29T09:16:59.614052Z</time></trkpt>
<trkpt lat="35.4850938" lon="-83.9317022"><time>2026-07-29T09:17:01.022542Z</time></trkpt>
<trkpt lat="35.4852554" lon="-83.9318534"><time>2026-07-29T09:17:02.388181Z</time></trkpt>
<trkpt lat="35.4853839" lon="-83.9319194"><time>2026-07-29T09:17:03.328088Z</time></trkpt>
<trkpt lat="35.4855296" lon="-83.9319354"><time>2026-07-29T09:17:04.317055Z</time></trkpt>
<trkpt lat="35.4857470" lon="-83.9317495"><time>2026-07-29T09:17:06.090074Z</time></trkpt>
<trkpt lat="35.4860065" lon="-83.9314437"><time>2026-07-29T09:17:08.483529Z</time></trkpt>
<trkpt lat="35.4861104" lon="-83.9313877"><time>2026-07-29T09:17:09.243885Z</time></trkpt>
<trkpt lat="35.4863085" lon="-83.9313879"><time>2026-07-29T09:17:10.575130Z</time></trkpt>
<trkpt lat="35.4864906" lon="-83.9314579"><time>2026-07-29T09:17:11.852747Z</time></trkpt>
<trkpt lat="35.4865830" lon="-83.9315923"><time>2026-07-29T09:17:12.798134Z</time></trkpt>
<trkpt lat="35.4865913" lon="-83.9317462"><time>2026-07-29T09:17:13.616982Z</time></trkpt>
<trkpt lat="35.4865049" lon="-83.9320101"><time>2026-07-29T09:17:15.131101Z</time></trkpt>
<trkpt lat="35.4864755" lon="-83.9321380"><time>2026-07-29T09:17:15.836665Z</time></trkpt>
<trkpt lat="35.4864976" lon="-83.9323064"><time>2026-07-29T09:17:16.740322Z</time></trkpt>
<trkpt lat="35.4865814" lon="-83.9324329"><time>2026-07-29T09:17:17.612445Z</time></trkpt>
<trkpt lat="35.4867495" lon="-83.9325030"><time>2026-07-29T09:17:18.793223Z</time></trkpt>
<trkpt lat="35.4870281" lon="-83.9324833"><time>2026-07-29T09:17:20.653287Z</time></trkpt>
<trkpt lat="35.4872269" lon="-83.9324107"><time>2026-07-29T09:17:22.032385Z</time></trkpt>
<trkpt lat="35.4873445" lon="-83.9322813"><time>2026-07-29T09:17:23.071980Z</time></trkpt>
<trkpt lat="35.4875098" lon="-83.9319835"><time>2026-07-29T09:17:24.991586Z</time></trkpt>
<trkpt lat="35.4876563" lon="-83.9318549"><time>2026-07-29T09:17:26.180294Z</time></trkpt>
<trkpt lat="35.4877792" lon="-83.9318444"><time>2026-07-29T09:17:27.000713Z</time></trkpt>
<trkpt lat="35.4881095" lon="-83.9319074"><time>2026-07-29T09:17:29.225911Z</time></trkpt>
<trkpt lat="35.4882474" lon="-83.9318432"><time>2026-07-29T09:17:30.205296Z</time></trkpt>
<trkpt lat="35.4883874" lon="-83.9317022"><time>2026-07-29T09:17:31.399369Z</time></trkpt>
<trkpt lat="35.4886065" lon="-83.9313318"><time>2026-07-29T09:17:33.842447Z</time></trkpt>
<trkpt lat="35.4887021" lon="-83.9312154"><time>2026-07-29T09:17:34.728952Z</time></trkpt>
<trkpt lat="35.4891260" lon="-83.9311253"><time>2026-07-29T09:17:37.598905Z</time></trkpt>
<trkpt lat="35.4893640" lon="-83.9310377"><time>2026-07-29T09:17:39.255377Z</time></trkpt>
<trkpt lat="35.4894128" lon="-83.9309566"><time>2026-07-29T09:17:39.795145Z</time></trkpt>
<trkpt lat="35.4894500" lon="-83.9307589"><time>2026-07-29T09:17:40.873411Z</time></trkpt>
<trkpt lat="35.4895424" lon="-83.9305168"><time>2026-07-29T09:17:42.300797Z</time></trkpt>
<trkpt lat="35.4898688" lon="-83.9302128"><time>2026-07-29T09:17:45.022735Z</time></trkpt>
<trkpt lat="35.4900179" lon="-83.9301312"><time>2026-07-29T09:17:46.114477Z</time></trkpt>
<trkpt lat="35.4903262" lon="-83.9301893"><time>2026-07-29T09:17:48.211258Z</time></trkpt>
<trkpt lat="35.4904479" lon="-83.9301734"><time>2026-07-29T09:17:49.035462Z</time></trkpt>
<trkpt lat="35.4905835" lon="-83.9300416"><time>2026-07-29T09:17:50.190477Z</time></trkpt>
<trkpt lat="35.4907561" lon="-83.9296233"><time>2026-07-29T09:17:52.717112Z</time></trkpt>
<trkpt lat="35.4908825" lon="-83.9294737"><time>2026-07-29T09:17:53.890625Z</time></trkpt>
<trkpt lat="35.4911466" lon="-83.9294124"><time>2026-07-29T09:17:55.712120Z</time></trkpt>
<trkpt lat="35.4913364" lon="-83.9294675"><time>2026-07-29T09:17:57.035823Z</time></trkpt>
<trkpt lat="35.4915276" lon="-83.9296422"><time>2026-07-29T09:17:58.643762Z</time></trkpt>
<trkpt lat="35.4916777" lon="-83.9297601"><time>2026-07-29T09:17:59.850656Z</time></trkpt>
<trkpt lat="35.4917739" lon="-83.9297477"><time>2026-07-29T09:18:00.512177Z</time></trkpt>
<trkpt lat="35.4920300" lon="-83.9293936"><time>2026-07-29T09:18:03.117815Z</time></trkpt>
<trkpt lat="35.4921793" lon="-83.9292407"><time>2026-07-29T09:18:04.439757Z</time></trkpt>
<trkpt lat="35.4924423" lon="-83.9291730"><time>2026-07-29T09:18:06.289566Z</time></trkpt>
<trkpt lat="35.4925303" lon="-83.9291234"><time>2026-07-29T09:18:06.955562Z</time></trkpt>
<trkpt lat="35.4926463" lon="-83.9289334"><time>2026-07-29T09:18:08.272827Z</time></trkpt>
<trkpt lat="35.4927609" lon="-83.9288085"><time>2026-07-29T09:18:09.325153Z</time></trkpt>
<trkpt lat="35.4928978" lon="-83.9288220"><time>2026-07-29T09:18:10.282049Z</time></trkpt>
<trkpt lat="35.4932547" lon="-83.9291097"><time>2026-07-29T09:18:13.242476Z</time></trkpt>
<trkpt lat="35.4934928" lon="-83.9291799"><time>2026-07-29T09:18:14.956808Z</time></trkpt>
<trkpt lat="35.4936394" lon="-83.9291038"><time>2026-07-29T09:18:16.071804Z</time></trkpt>
<trkpt lat="35.4937508" lon="-83.9289648"><time>2026-07-29T09:18:17.177508Z</time></trkpt>
<trkpt lat="35.4939710" lon="-83.9285446"><time>2026-07-29T09:18:20.004776Z</time></trkpt>
<trkpt lat="35.4940710" lon="-83.9281407"><time>2026-07-29T09:18:22.388005Z</time></trkpt>
<trkpt lat="35.4941122" lon="-83.9278374"><time>2026-07-29T09:18:24.127265Z</time></trkpt>
<trkpt lat="35.4941995" lon="-83.9277166"><time>2026-07-29T09:18:25.054466Z</time></trkpt>
<trkpt lat="35.4943362" lon="-83.9276964"><time>2026-07-29T09:18:26.042862Z</time></trkpt>
<trkpt lat="35.4946801" lon="-83.9278301"><time>2026-07-29T09:18:28.636854Z</time></trkpt>
<trkpt lat="35.4948260" lon="-83.9278268"><time>2026-07-29T09:18:29.692736Z</time></trkpt>
<trkpt lat="35.4949659" lon="-83.9277505"><time>2026-07-29T09:18:30.799912Z</time></trkpt>
<trkpt lat="35.4950590" lon="-83.9275748"><time>2026-07-29T09:18:32.021795Z</time></trkpt>
<trkpt lat="35.4951791" lon="-83.9273483"><time>2026-07-29T09:18:33.603671Z</time></trkpt>
<trkpt lat="35.4953785" lon="-83.9273013"><time>2026-07-29T09:18:35.095170Z</time></trkpt>
<trkpt lat="35.4955327" lon="-83.9272132"><time>2026-07-29T09:18:36.345042Z</time></trkpt>
<trkpt lat="35.4958997" lon="-83.9267850"><time>2026-07-29T09:18:40.051940Z</time></trkpt>
<trkpt lat="35.4961328" lon="-83.9265608"><time>2026-07-29T09:18:42.234862Z</time></trkpt>
<trkpt lat="35.4962320" lon="-83.9265315"><time>2026-07-29T09:18:42.996887Z</time></trkpt>
<trkpt lat="35.4964275" lon="-83.9266117"><time>2026-07-29T09:18:44.541313Z</time></trkpt>
<trkpt lat="35.4968917" lon="-83.9270445"><time>2026-07-29T09:18:48.897390Z</time></trkpt>
<trkpt lat="35.4971243" lon="-83.9274286"><time>2026-07-29T09:18:51.802166Z</time></trkpt>
<trkpt lat="35.4972549" lon="-83.9278247"><time>2026-07-29T09:18:54.392202Z</time></trkpt>
<trkpt lat="35.4972383" lon="-83.9280220"><time>2026-07-29T09:18:55.595666Z</time></trkpt>
<trkpt lat="35.4969244" lon="-83.9284555"><time>2026-07-29T09:18:59.173556Z</time></trkpt>
<trkpt lat="35.4966827" lon="-83.9288079"><time>2026-07-29T09:19:02.026744Z</time></trkpt>
<trkpt lat="35.4965424" lon="-83.9291304"><time>2026-07-29T09:19:04.289991Z</time></trkpt>
<trkpt lat="35.4965262" lon="-83.9293169"><time>2026-07-29T09:19:05.449856Z</time></trkpt>
<trkpt lat="35.4965808" lon="-83.9295822"><time>2026-07-29T09:19:07.152590Z</time></trkpt>
<trkpt lat="35.4965758" lon="-83.9298122"><time>2026-07-29T09:19:08.588956Z</time></trkpt>
<trkpt lat="35.4964295" lon="-83.9304109"><time>2026-07-29T09:19:12.519314Z</time></trkpt>
<trkpt lat="35.4963106" lon="-83.9313319"><time>2026-07-29T09:19:18.402482Z</time></trkpt>
<trkpt lat="35.4963271" lon="-83.9316165"><time>2026-07-29T09:19:20.210603Z</time></trkpt>
<trkpt lat="35.4964466" lon="-83.9319586"><time>2026-07-29T09:19:22.591231Z</time></trkpt>
<trkpt lat="35.4964673" lon="-83.9322212"><time>2026-07-29T09:19:24.280227Z</time></trkpt>
<trkpt lat="35.4964366" lon="-83.9330009"><time>2026-07-29T09:19:29.301973Z</time></trkpt>
<trkpt lat="35.4964592" lon="-83.9336578"><time>2026-07-29T09:19:33.553077Z</time></trkpt>
<trkpt lat="35.4964160" lon="-83.9338603"><time>2026-07-29T09:19:34.915797Z</time></trkpt>
<trkpt lat="35.4963381" lon="-83.9339653"><time>2026-07-29T09:19:35.855064Z</time></trkpt>
<trkpt lat="35.4962111" lon="-83.9340118"><time>2026-07-29T09:19:36.950124Z</time></trkpt>
<trkpt lat="35.4960036" lon="-83.9339814"><time>2026-07-29T09:19:38.688771Z</time></trkpt>
<trkpt lat="35.4956795" lon="-83.9341914"><time>2026-07-29T09:19:41.736882Z</time></trkpt>
<trkpt lat="35.4954543" lon="-83.9343669"><time>2026-07-29T09:19:43.962710Z</time></trkpt>
<trkpt lat="35.4951533" lon="-83.9348590"><time>2026-07-29T09:19:48.127133Z</time></trkpt>
<trkpt lat="35.4951082" lon="-83.9350426"><time>2026-07-29T09:19:49.421543Z</time></trkpt>
<trkpt lat="35.4951387" lon="-83.9351576"><time>2026-07-29T09:19:50.242326Z</time></trkpt>
<trkpt lat="35.4952394" lon="-83.9352649"><time>2026-07-29T09:19:51.373461Z</time></trkpt>
<trkpt lat="35.4958274" lon="-83.9354883"><time>2026-07-29T09:19:56.669479Z</time></trkpt>
<trkpt lat="35.4959838" lon="-83.9354952"><time>2026-07-29T09:19:58.025890Z</time></trkpt>
<trkpt lat="35.4963712" lon="-83.9353396"><time>2026-07-29T09:20:01.567354Z</time></trkpt>
<trkpt lat="35.4967586" lon="-83.9353676"><time>2026-07-29T09:20:04.964169Z</time></trkpt>
<trkpt lat="35.4970989" lon="-83.9353368"><time>2026-07-29T09:20:07.965481Z</time></trkpt>
<trkpt lat="35.4979403" lon="-83.9353137"><time>2026-07-29T09:20:15.405189Z</time></trkpt>
<trkpt lat="35.4983036" lon="-83.9352599"><time>2026-07-29T09:20:18.654465Z</time></trkpt>
<trkpt lat="35.4989719" lon="-83.9345515"><time>2026-07-29T09:20:26.445839Z</time></trkpt>
<trkpt lat="35.4992713" lon="-83.9341226"><time>2026-07-29T09:20:30.508723Z</time></trkpt>
<trkpt lat="35.4994286" lon="-83.9339817"><time>2026-07-29T09:20:32.246964Z</time></trkpt>
<trkpt lat="35.4995166" lon="-83.9339673"><time>2026-07-29T09:20:33.050174Z</time></trkpt>
<trkpt lat="35.4996214" lon="-83.9340112"><time>2026-07-29T09:20:34.054284Z</time></trkpt>
<trkpt lat="35.4997273" lon="-83.9341513"><time>2026-07-29T09:20:35.456009Z</time></trkpt>
<trkpt lat="35.4997429" lon="-83.9343006"><time>2026-07-29T09:20:36.551315Z</time></trkpt>
<trkpt lat="35.4996877" lon="-83.9344786"><time>2026-07-29T09:20:37.947563Z</time></trkpt>
<trkpt lat="35.4989375" lon="-83.9363014"><time>2026-07-29T09:20:53.014941Z</time></trkpt>
<trkpt lat="35.4988991" lon="-83.9365054"><time>2026-07-29T09:20:54.559637Z</time></trkpt>
<trkpt lat="35.4989033" lon="-83.9367920"><time>2026-07-29T09:20:56.680142Z</time></trkpt>
<trkpt lat="35.4988698" lon="-83.9368729"><time>2026-07-29T09:20:57.358045Z</time></trkpt>
<trkpt lat="35.4988028" lon="-83.9369243"><time>2026-07-29T09:20:58.095614Z</time></trkpt>
<trkpt lat="35.4986695" lon="-83.9369270"><time>2026-07-29T09:20:59.354348Z</time></trkpt>
<trkpt lat="35.4985091" lon="-83.9368563"><time>2026-07-29T09:21:00.964592Z</time></trkpt>
<trkpt lat="35.4982129" lon="-83.9366745"><time>2026-07-29T09:21:04.097718Z</time></trkpt>
<trkpt lat="35.4980210" lon="-83.9366668"><time>2026-07-29T09:21:05.930343Z</time></trkpt>
<trkpt lat="35.4976580" lon="-83.9367626"><time>2026-07-29T09:21:09.482347Z</time></trkpt>
<trkpt lat="35.4974036" lon="-83.9369111"><time>2026-07-29T09:21:12.176073Z</time></trkpt>
<trkpt lat="35.4972468" lon="-83.9370889"><time>2026-07-29T09:21:14.208645Z</time></trkpt>
<trkpt lat="35.4972260" lon="-83.9372625"><time>2026-07-29T09:21:15.554597Z</time></trkpt>
<trkpt lat="35.4973051" lon="-83.9376760"><time>2026-07-29T09:21:18.825139Z</time></trkpt>
<trkpt lat="35.4973734" lon="-83.9386902"><time>2026-07-29T09:21:26.673273Z</time></trkpt>
<trkpt lat="35.4974459" lon="-83.9389449"><time>2026-07-29T09:21:28.765511Z</time></trkpt>
<trkpt lat="35.4976213" lon="-83.9391153"><time>2026-07-29T09:21:30.930072Z</time></trkpt>
<trkpt lat="35.4977258" lon="-83.9392498"><time>2026-07-29T09:21:32.393324Z</time></trkpt>
<trkpt lat="35.4977350" lon="-83.9394187"><time>2026-07-29T09:21:33.711791Z</time></trkpt>
<trkpt lat="35.4975897" lon="-83.9396993"><time>2026-07-29T09:21:36.327531Z</time></trkpt>
<trkpt lat="35.4975205" lon="-83.9399004"><time>2026-07-29T09:21:38.041966Z</time></trkpt>
<trkpt lat="35.4975301" lon="-83.9400549"><time>2026-07-29T09:21:39.256195Z</time></trkpt>
<trkpt lat="35.4976589" lon="-83.9403612"><time>2026-07-29T09:21:41.977459Z</time></trkpt>
<trkpt lat="35.4977965" lon="-83.9408443"><time>2026-07-29T09:21:46.012783Z</time></trkpt>
<trkpt lat="35.4980028" lon="-83.9412459"><time>2026-07-29T09:21:49.779970Z</time></trkpt>
<trkpt lat="35.4981384" lon="-83.9416338"><time>2026-07-29T09:21:53.121613Z</time></trkpt>
<trkpt lat="35.4982815" lon="-83.9418294"><time>2026-07-29T09:21:55.221964Z</time></trkpt>
<trkpt lat="35.4984050" lon="-83.9419069"><time>2026-07-29T09:21:56.596345Z</time></trkpt>
<trkpt lat="35.4986063" lon="-83.9418975"><time>2026-07-29T09:21:58.605063Z</time></trkpt>
<trkpt lat="35.4989752" lon="-83.9416653"><time>2026-07-29T09:22:02.719050Z</time></trkpt>
<trkpt lat="35.4991390" lon="-83.9416728"><time>2026-07-29T09:22:04.355471Z</time></trkpt>
<trkpt lat="35.4992002" lon="-83.9417810"><time>2026-07-29T09:22:05.407884Z</time></trkpt>
<trkpt lat="35.4991661" lon="-83.9419601"><time>2026-07-29T09:22:06.866612Z</time></trkpt>
<trkpt lat="35.4989452" lon="-83.9423215"><time>2026-07-29T09:22:10.480827Z</time></trkpt>
<trkpt lat="35.4988805" lon="-83.9425084"><time>2026-07-29T09:22:12.095864Z</time></trkpt>
<trkpt lat="35.4988938" lon="-83.9426545"><time>2026-07-29T09:22:13.260148Z</time></trkpt>
<trkpt lat="35.4990242" lon="-83.9428481"><time>2026-07-29T09:22:15.270543Z</time></trkpt>
<trkpt lat="35.4992840" lon="-83.9429317"><time>2026-07-29T09:22:17.945427Z</time></trkpt>
<trkpt lat="35.4998482" lon="-83.9427261"><time>2026-07-29T09:22:23.800046Z</time></trkpt>
<trkpt lat="35.5002066" lon="-83.9426104"><time>2026-07-29T09:22:27.484901Z</time></trkpt>
<trkpt lat="35.5004868" lon="-83.9425923"><time>2026-07-29T09:22:30.276563Z</time></trkpt>
<trkpt lat="35.5007763" lon="-83.9426597"><time>2026-07-29T09:22:33.202289Z</time></trkpt>
<trkpt lat="35.5008781" lon="-83.9427470"><time>2026-07-29T09:22:34.424045Z</time></trkpt>
<trkpt lat="35.5009259" lon="-83.9429494"><time>2026-07-29T09:22:36.083313Z</time></trkpt>
<trkpt lat="35.5008812" lon="-83.9431205"><time>2026-07-29T09:22:37.496404Z</time></trkpt>
<trkpt lat="35.5007993" lon="-83.9432187"><time>2026-07-29T09:22:38.612427Z</time></trkpt>
<trkpt lat="35.5006893" lon="-83.9432455"><time>2026-07-29T09:22:39.716792Z</time></trkpt>
<trkpt lat="35.5003904" lon="-83.9432030"><time>2026-07-29T09:22:42.675737Z</time></trkpt>
<trkpt lat="35.5002515" lon="-83.9432814"><time>2026-07-29T09:22:44.169382Z</time></trkpt>
<trkpt lat="35.5000118" lon="-83.9435378"><time>2026-07-29T09:22:47.247028Z</time></trkpt>
<trkpt lat="35.4999328" lon="-83.9437341"><time>2026-07-29T09:22:48.951871Z</time></trkpt>
<trkpt lat="35.4999541" lon="-83.9439377"><time>2026-07-29T09:22:50.538116Z</time></trkpt>
<trkpt lat="35.5001166" lon="-83.9441183"><time>2026-07-29T09:22:52.642426Z</time></trkpt>
<trkpt lat="35.5002465" lon="-83.9441306"><time>2026-07-29T09:22:53.904482Z</time></trkpt>
<trkpt lat="35.5004215" lon="-83.9440294"><time>2026-07-29T09:22:55.764060Z</time></trkpt>
<trkpt lat="35.5005743" lon="-83.9439840"><time>2026-07-29T09:22:57.275699Z</time></trkpt>
<trkpt lat="35.5006784" lon="-83.9440320"><time>2026-07-29T09:22:58.339553Z</time></trkpt>
<trkpt lat="35.5007928" lon="-83.9441781"><time>2026-07-29T09:22:59.896927Z</time></trkpt>
<trkpt lat="35.5008743" lon="-83.9444264"><time>2026-07-29T09:23:01.928037Z</time></trkpt>
<trkpt lat="35.5008516" lon="-83.9446947"><time>2026-07-29T09:23:03.960083Z</time></trkpt>
<trkpt lat="35.5007916" lon="-83.9450459"><time>2026-07-29T09:23:06.655782Z</time></trkpt>
<trkpt lat="35.5008172" lon="-83.9451942"><time>2026-07-29T09:23:07.790328Z</time></trkpt>
<trkpt lat="35.5009028" lon="-83.9453039"><time>2026-07-29T09:23:08.936488Z</time></trkpt>
<trkpt lat="35.5010417" lon="-83.9453679"><time>2026-07-29T09:23:10.319936Z</time></trkpt>
<trkpt lat="35.5012604" lon="-83.9453828"><time>2026-07-29T09:23:12.360653Z</time></trkpt>
<trkpt lat="35.5013677" lon="-83.9454418"><time>2026-07-29T09:23:13.446785Z</time></trkpt>
<trkpt lat="35.5014331" lon="-83.9455742"><time>2026-07-29T09:23:14.589515Z</time></trkpt>
<trkpt lat="35.5014450" lon="-83.9458500"><time>2026-07-29T09:23:16.604153Z</time></trkpt>
<trkpt lat="35.5014073" lon="-83.9459995"><time>2026-07-29T09:23:17.743429Z</time></trkpt>
<trkpt lat="35.5013218" lon="-83.9460995"><time>2026-07-29T09:23:18.806748Z</time></trkpt>
<trkpt lat="35.5008924" lon="-83.9462239"><time>2026-07-29T09:23:22.806466Z</time></trkpt>
<trkpt lat="35.5004712" lon="-83.9464472"><time>2026-07-29T09:23:26.935295Z</time></trkpt>
<trkpt lat="35.4998557" lon="-83.9471876"><time>2026-07-29T09:23:34.585698Z</time></trkpt>
<trkpt lat="35.4997275" lon="-83.9474637"><time>2026-07-29T09:23:36.856739Z</time></trkpt>
<trkpt lat="35.4997058" lon="-83.9476503"><time>2026-07-29T09:23:38.188993Z</time></trkpt>
<trkpt lat="35.4997049" lon="-83.9484773"><time>2026-07-29T09:23:44.002974Z</time></trkpt>
<trkpt lat="35.4998687" lon="-83.9493355"><time>2026-07-29T09:23:50.178673Z</time></trkpt>
<trkpt lat="35.4999483" lon="-83.9497145"><time>2026-07-29T09:23:52.908331Z</time></trkpt>
<trkpt lat="35.5000695" lon="-83.9497942"><time>2026-07-29T09:23:54.102736Z</time></trkpt>
<trkpt lat="35.5003989" lon="-83.9496428"><time>2026-07-29T09:23:57.151215Z</time></trkpt>
<trkpt lat="35.5006918" lon="-83.9492026"><time>2026-07-29T09:24:01.093208Z</time></trkpt>
<trkpt lat="35.5008298" lon="-83.9486811"><time>2026-07-29T09:24:04.845471Z</time></trkpt>
<trkpt lat="35.5011046" lon="-83.9483622"><time>2026-07-29T09:24:08.043904Z</time></trkpt>
<trkpt lat="35.5012214" lon="-83.9483281"><time>2026-07-29T09:24:09.065623Z</time></trkpt>
<trkpt lat="35.5013937" lon="-83.9484888"><time>2026-07-29T09:24:10.882587Z</time></trkpt>
<trkpt lat="35.5015697" lon="-83.9486461"><time>2026-07-29T09:24:12.702284Z</time></trkpt>
<trkpt lat="35.5016900" lon="-83.9486368"><time>2026-07-29T09:24:13.713887Z</time></trkpt>
<trkpt lat="35.5020809" lon="-83.9483772"><time>2026-07-29T09:24:17.402904Z</time></trkpt>
<trkpt lat="35.5021981" lon="-83.9483935"><time>2026-07-29T09:24:18.382508Z</time></trkpt>
<trkpt lat="35.5022900" lon="-83.9484984"><time>2026-07-29T09:24:19.406991Z</time></trkpt>
<trkpt lat="35.5024362" lon="-83.9488945"><time>2026-07-29T09:24:22.255618Z</time></trkpt>
<trkpt lat="35.5025292" lon="-83.9489895"><time>2026-07-29T09:24:23.234774Z</time></trkpt>
<trkpt lat="35.5027113" lon="-83.9490434"><time>2026-07-29T09:24:24.757436Z</time></trkpt>
<trkpt lat="35.5028577" lon="-83.9490118"><time>2026-07-29T09:24:25.960429Z</time></trkpt>
<trkpt lat="35.5030197" lon="-83.9487788"><time>2026-07-29T09:24:27.940397Z</time></trkpt>
<trkpt lat="35.5031554" lon="-83.9483236"><time>2026-07-29T09:24:31.031829Z</time></trkpt>
<trkpt lat="35.5033107" lon="-83.9482709"><time>2026-07-29T09:24:32.314903Z</time></trkpt>
<trkpt lat="35.5034624" lon="-83.9483752"><time>2026-07-29T09:24:33.686475Z</time></trkpt>
<trkpt lat="35.5037256" lon="-83.9485231"><time>2026-07-29T09:24:35.962590Z</time></trkpt>
<trkpt lat="35.5039003" lon="-83.9483998"><time>2026-07-29T09:24:37.536206Z</time></trkpt>
<trkpt lat="35.5041416" lon="-83.9479819"><time>2026-07-29T09:24:40.742342Z</time></trkpt>
<trkpt lat="35.5042731" lon="-83.9479873"><time>2026-07-29T09:24:41.766555Z</time></trkpt>
<trkpt lat="35.5045449" lon="-83.9482716"><time>2026-07-29T09:24:44.502071Z</time></trkpt>
<trkpt lat="35.5048104" lon="-83.9484471"><time>2026-07-29T09:24:46.813252Z</time></trkpt>
<trkpt lat="35.5053529" lon="-83.9484146"><time>2026-07-29T09:24:50.981149Z</time></trkpt>
<trkpt lat="35.5055332" lon="-83.9483307"><time>2026-07-29T09:24:52.449068Z</time></trkpt>
<trkpt lat="35.5056706" lon="-83.9483467"><time>2026-07-29T09:24:53.498175Z</time></trkpt>
<trkpt lat="35.5057323" lon="-83.9484680"><time>2026-07-29T09:24:54.362922Z</time></trkpt>
<trkpt lat="35.5057310" lon="-83.9487661"><time>2026-07-29T09:24:56.143538Z</time></trkpt>
<trkpt lat="35.5057524" lon="-83.9489441"><time>2026-07-29T09:24:57.214123Z</time></trkpt>
<trkpt lat="35.5060382" lon="-83.9493877"><time>2026-07-29T09:25:00.598290Z</time></trkpt>
<trkpt lat="35.5062141" lon="-83.9495150"><time>2026-07-29T09:25:02.106159Z</time></trkpt>
<trkpt lat="35.5066074" lon="-83.9493197"><time>2026-07-29T09:25:05.235522Z</time></trkpt>
<trkpt lat="35.5070873" lon="-83.9491316"><time>2026-07-29T09:25:08.940449Z</time></trkpt>
<trkpt lat="35.5076345" lon="-83.9489453"><time>2026-07-29T09:25:13.101719Z</time></trkpt>
<trkpt lat="35.5077490" lon="-83.9490464"><time>2026-07-29T09:25:14.123686Z</time></trkpt>
<trkpt lat="35.5076931" lon="-83.9493001"><time>2026-07-29T09:25:15.643986Z</time></trkpt>
<trkpt lat="35.5071734" lon="-83.9502880"><time>2026-07-29T09:25:22.462351Z</time></trkpt>
<trkpt lat="35.5070955" lon="-83.9506266"><time>2026-07-29T09:25:24.482124Z</time></trkpt>
<trkpt lat="35.5071732" lon="-83.9509737"><time>2026-07-29T09:25:26.540485Z</time></trkpt>
<trkpt lat="35.5070210" lon="-83.9514183"><time>2026-07-29T09:25:29.294009Z</time></trkpt>
<trkpt lat="35.5067419" lon="-83.9524486"><time>2026-07-29T09:25:35.462157Z</time></trkpt>
<trkpt lat="35.5067934" lon="-83.9528510"><time>2026-07-29T09:25:37.763119Z</time></trkpt>
<trkpt lat="35.5071284" lon="-83.9530436"><time>2026-07-29T09:25:40.375438Z</time></trkpt>
<trkpt lat="35.5075633" lon="-83.9532383"><time>2026-07-29T09:25:43.638829Z</time></trkpt>
<trkpt lat="35.5077632" lon="-83.9534283"><time>2026-07-29T09:25:45.402975Z</time></trkpt>
<trkpt lat="35.5077905" lon="-83.9535663"><time>2026-07-29T09:25:46.195161Z</time></trkpt>
<trkpt lat="35.5077592" lon="-83.9536681"><time>2026-07-29T09:25:46.801392Z</time></trkpt>
<trkpt lat="35.5076941" lon="-83.9537241"><time>2026-07-29T09:25:47.351551Z</time></trkpt>
<trkpt lat="35.5075443" lon="-83.9536790"><time>2026-07-29T09:25:48.423634Z</time></trkpt>
<trkpt lat="35.5072879" lon="-83.9535056"><time>2026-07-29T09:25:50.443016Z</time></trkpt>
<trkpt lat="35.5067909" lon="-83.9537197"><time>2026-07-29T09:25:54.078256Z</time></trkpt>
<trkpt lat="35.5063936" lon="-83.9537304"><time>2026-07-29T09:25:56.821502Z</time></trkpt>
<trkpt lat="35.5062172" lon="-83.9539575"><time>2026-07-29T09:25:58.556953Z</time></trkpt>
<trkpt lat="35.5062998" lon="-83.9544491"><time>2026-07-29T09:26:01.293067Z</time></trkpt>
<trkpt lat="35.5060428" lon="-83.9546834"><time>2026-07-29T09:26:03.465599Z</time></trkpt>
<trkpt lat="35.5056458" lon="-83.9549231"><time>2026-07-29T09:26:06.474084Z</time></trkpt>
<trkpt lat="35.5053803" lon="-83.9550649"><time>2026-07-29T09:26:08.440448Z</time></trkpt>
<trkpt lat="35.5049342" lon="-83.9549386"><time>2026-07-29T09:26:11.551937Z</time></trkpt>
<trkpt lat="35.5046220" lon="-83.9550794"><time>2026-07-29T09:26:13.803758Z</time></trkpt>
<trkpt lat="35.5042654" lon="-83.9553616"><time>2026-07-29T09:26:16.657323Z</time></trkpt>
<trkpt lat="35.5042172" lon="-83.9555844"><time>2026-07-29T09:26:17.896137Z</time></trkpt>
<trkpt lat="35.5042792" lon="-83.9556937"><time>2026-07-29T09:26:18.615796Z</time></trkpt>
<trkpt lat="35.5044827" lon="-83.9558322"><time>2026-07-29T09:26:20.175042Z</time></trkpt>
<trkpt lat="35.5045094" lon="-83.9559859"><time>2026-07-29T09:26:21.014912Z</time></trkpt>
<trkpt lat="35.5043362" lon="-83.9562496"><time>2026-07-29T09:26:22.840130Z</time></trkpt>
<trkpt lat="35.5041204" lon="-83.9567446"><time>2026-07-29T09:26:25.847056Z</time></trkpt>
<trkpt lat="35.5041053" lon="-83.9571422"><time>2026-07-29T09:26:27.963234Z</time></trkpt>
<trkpt lat="35.5041626" lon="-83.9572325"><time>2026-07-29T09:26:28.577433Z</time></trkpt>
<trkpt lat="35.5043127" lon="-83.9572767"><time>2026-07-29T09:26:29.608790Z</time></trkpt>
<trkpt lat="35.5045589" lon="-83.9573155"><time>2026-07-29T09:26:31.267429Z</time></trkpt>
<trkpt lat="35.5046801" lon="-83.9574350"><time>2026-07-29T09:26:32.294954Z</time></trkpt>
<trkpt lat="35.5047006" lon="-83.9576026"><time>2026-07-29T09:26:33.192314Z</time></trkpt>
<trkpt lat="35.5046293" lon="-83.9578025"><time>2026-07-29T09:26:34.351502Z</time></trkpt>
<trkpt lat="35.5045098" lon="-83.9580821"><time>2026-07-29T09:26:36.030411Z</time></trkpt>
<trkpt lat="35.5043378" lon="-83.9588801"><time>2026-07-29T09:26:40.399558Z</time></trkpt>
<trkpt lat="35.5042434" lon="-83.9594863"><time>2026-07-29T09:26:43.662506Z</time></trkpt>
<trkpt lat="35.5042748" lon="-83.9596316"><time>2026-07-29T09:26:44.457773Z</time></trkpt>
<trkpt lat="35.5044284" lon="-83.9597860"><time>2026-07-29T09:26:45.765873Z</time></trkpt>
<trkpt lat="35.5045463" lon="-83.9597887"><time>2026-07-29T09:26:46.551228Z</time></trkpt>
<trkpt lat="35.5047838" lon="-83.9596660"><time>2026-07-29T09:26:48.260715Z</time></trkpt>
<trkpt lat="35.5050348" lon="-83.9596017"><time>2026-07-29T09:26:49.967063Z</time></trkpt>
<trkpt lat="35.5051343" lon="-83.9595379"><time>2026-07-29T09:26:50.710918Z</time></trkpt>
<trkpt lat="35.5051927" lon="-83.9594051"><time>2026-07-29T09:26:51.513602Z</time></trkpt>
<trkpt lat="35.5052254" lon="-83.9591885"><time>2026-07-29T09:26:52.679644Z</time></trkpt>
<trkpt lat="35.5052620" lon="-83.9588526"><time>2026-07-29T09:26:54.473824Z</time></trkpt>
<trkpt lat="35.5053559" lon="-83.9587621"><time>2026-07-29T09:26:55.263173Z</time></trkpt>
<trkpt lat="35.5054454" lon="-83.9587715"><time>2026-07-29T09:26:55.863564Z</time></trkpt>
<trkpt lat="35.5057101" lon="-83.9589404"><time>2026-07-29T09:26:57.848507Z</time></trkpt>
<trkpt lat="35.5059034" lon="-83.9589659"><time>2026-07-29T09:26:59.150358Z</time></trkpt>
<trkpt lat="35.5061984" lon="-83.9586666"><time>2026-07-29T09:27:01.689155Z</time></trkpt>
<trkpt lat="35.5064962" lon="-83.9585154"><time>2026-07-29T09:27:03.844582Z</time></trkpt>
<trkpt lat="35.5067111" lon="-83.9584163"><time>2026-07-29T09:27:05.382958Z</time></trkpt>
<trkpt lat="35.5068052" lon="-83.9582793"><time>2026-07-29T09:27:06.350541Z</time></trkpt>
<trkpt lat="35.5068811" lon="-83.9580909"><time>2026-07-29T09:27:07.480346Z</time></trkpt>
<trkpt lat="35.5070104" lon="-83.9577039"><time>2026-07-29T09:27:09.729239Z</time></trkpt>
<trkpt lat="35.5070798" lon="-83.9575978"><time>2026-07-29T09:27:10.467108Z</time></trkpt>
<trkpt lat="35.5071974" lon="-83.9575672"><time>2026-07-29T09:27:11.281088Z</time></trkpt>
<trkpt lat="35.5072975" lon="-83.9576506"><time>2026-07-29T09:27:12.095899Z</time></trkpt>
<trkpt lat="35.5075295" lon="-83.9583812"><time>2026-07-29T09:27:16.342452Z</time></trkpt>
<trkpt lat="35.5078199" lon="-83.9588982"><time>2026-07-29T09:27:19.768541Z</time></trkpt>
<trkpt lat="35.5081887" lon="-83.9594324"><time>2026-07-29T09:27:23.607368Z</time></trkpt>
<trkpt lat="35.5083546" lon="-83.9598372"><time>2026-07-29T09:27:26.082657Z</time></trkpt>
<trkpt lat="35.5083739" lon="-83.9600328"><time>2026-07-29T09:27:27.155945Z</time></trkpt>
<trkpt lat="35.5083414" lon="-83.9602683"><time>2026-07-29T09:27:28.460844Z</time></trkpt>
<trkpt lat="35.5078196" lon="-83.9615287"><time>2026-07-29T09:27:36.243140Z</time></trkpt>
<trkpt lat="35.5077407" lon="-83.9618611"><time>2026-07-29T09:27:38.147350Z</time></trkpt>
<trkpt lat="35.5077496" lon="-83.9623722"><time>2026-07-29T09:27:40.960781Z</time></trkpt>
<trkpt lat="35.5077675" lon="-83.9631394"><time>2026-07-29T09:27:45.196970Z</time></trkpt>
<trkpt lat="35.5076780" lon="-83.9634358"><time>2026-07-29T09:27:46.952726Z</time></trkpt>
<trkpt lat="35.5073912" lon="-83.9637886"><time>2026-07-29T09:27:49.758533Z</time></trkpt>
<trkpt lat="35.5073450" lon="-83.9639045"><time>2026-07-29T09:27:50.481127Z</time></trkpt>
<trkpt lat="35.5073090" lon="-83.9640983"><time>2026-07-29T09:27:51.593454Z</time></trkpt>
<trkpt lat="35.5072366" lon="-83.9645728"><time>2026-07-29T09:27:54.302702Z</time></trkpt>
<trkpt lat="35.5071067" lon="-83.9648104"><time>2026-07-29T09:27:55.926446Z</time></trkpt>
<trkpt lat="35.5068161" lon="-83.9650961"><time>2026-07-29T09:27:58.550166Z</time></trkpt>
<trkpt lat="35.5065726" lon="-83.9652369"><time>2026-07-29T09:28:00.464478Z</time></trkpt>
<trkpt lat="35.5062775" lon="-83.9652308"><time>2026-07-29T09:28:02.581398Z</time></trkpt>
<trkpt lat="35.5058952" lon="-83.9654639"><time>2026-07-29T09:28:05.638405Z</time></trkpt>
<trkpt lat="35.5056337" lon="-83.9656023"><time>2026-07-29T09:28:07.687812Z</time></trkpt>
<trkpt lat="35.5054193" lon="-83.9658213"><time>2026-07-29T09:28:09.689290Z</time></trkpt>
<trkpt lat="35.5053124" lon="-83.9660450"><time>2026-07-29T09:28:11.197510Z</time></trkpt>
<trkpt lat="35.5051659" lon="-83.9664647"><time>2026-07-29T09:28:13.856135Z</time></trkpt>
<trkpt lat="35.5050518" lon="-83.9665645"><time>2026-07-29T09:28:14.875661Z</time></trkpt>
<trkpt lat="35.5047433" lon="-83.9666662"><time>2026-07-29T09:28:17.226722Z</time></trkpt>
<trkpt lat="35.5046375" lon="-83.9668483"><time>2026-07-29T09:28:18.552011Z</time></trkpt>
<trkpt lat="35.5044459" lon="-83.9676107"><time>2026-07-29T09:28:23.267094Z</time></trkpt>
<trkpt lat="35.5043558" lon="-83.9677347"><time>2026-07-29T09:28:24.263035Z</time></trkpt>
<trkpt lat="35.5041746" lon="-83.9678407"><time>2026-07-29T09:28:25.761399Z</time></trkpt>
<trkpt lat="35.5039251" lon="-83.9678856"><time>2026-07-29T09:28:27.660467Z</time></trkpt>
<trkpt lat="35.5032450" lon="-83.9677475"><time>2026-07-29T09:28:32.874644Z</time></trkpt>
<trkpt lat="35.5030774" lon="-83.9677434"><time>2026-07-29T09:28:34.149318Z</time></trkpt>
<trkpt lat="35.5029603" lon="-83.9678692"><time>2026-07-29T09:28:35.324355Z</time></trkpt>
<trkpt lat="35.5028909" lon="-83.9681045"><time>2026-07-29T09:28:36.851966Z</time></trkpt>
<trkpt lat="35.5028787" lon="-83.9683577"><time>2026-07-29T09:28:38.402769Z</time></trkpt>
<trkpt lat="35.5030145" lon="-83.9687680"><time>2026-07-29T09:28:41.133958Z</time></trkpt>
<trkpt lat="35.5031483" lon="-83.9690028"><time>2026-07-29T09:28:42.918764Z</time></trkpt>
<trkpt lat="35.5035092" lon="-83.9693789"><time>2026-07-29T09:28:46.581199Z</time></trkpt>
<trkpt lat="35.5036403" lon="-83.9696832"><time>2026-07-29T09:28:48.739767Z</time></trkpt>
<trkpt lat="35.5036620" lon="-83.9698959"><time>2026-07-29T09:28:50.082984Z</time></trkpt>
<trkpt lat="35.5035791" lon="-83.9701769"><time>2026-07-29T09:28:51.970238Z</time></trkpt>
<trkpt lat="35.5035550" lon="-83.9703365"><time>2026-07-29T09:28:52.998006Z</time></trkpt>
<trkpt lat="35.5036981" lon="-83.9707368"><time>2026-07-29T09:28:55.789742Z</time></trkpt>
<trkpt lat="35.5037324" lon="-83.9710717"><time>2026-07-29T09:28:57.947437Z</time></trkpt>
<trkpt lat="35.5038110" lon="-83.9712156"><time>2026-07-29T09:28:59.069670Z</time></trkpt>
<trkpt lat="35.5040495" lon="-83.9713357"><time>2026-07-29T09:29:01.160476Z</time></trkpt>
<trkpt lat="35.5042942" lon="-83.9713986"><time>2026-07-29T09:29:03.204038Z</time></trkpt>
<trkpt lat="35.5043968" lon="-83.9715059"><time>2026-07-29T09:29:04.300234Z</time></trkpt>
<trkpt lat="35.5043881" lon="-83.9718074"><time>2026-07-29T09:29:06.277553Z</time></trkpt>
<trkpt lat="35.5043771" lon="-83.9722958"><time>2026-07-29T09:29:09.496163Z</time></trkpt>
<trkpt lat="35.5044252" lon="-83.9726861"><time>2026-07-29T09:29:12.111437Z</time></trkpt>
<trkpt lat="35.5044443" lon="-83.9730537"><time>2026-07-29T09:29:14.563069Z</time></trkpt>
<trkpt lat="35.5044088" lon="-83.9733593"><time>2026-07-29T09:29:16.629059Z</time></trkpt>
<trkpt lat="35.5043463" lon="-83.9737033"><time>2026-07-29T09:29:19.001768Z</time></trkpt>
<trkpt lat="35.5043063" lon="-83.9742880"><time>2026-07-29T09:29:22.967457Z</time></trkpt>
<trkpt lat="35.5041309" lon="-83.9749663"><time>2026-07-29T09:29:27.813052Z</time></trkpt>
<trkpt lat="35.5037990" lon="-83.9759763"><time>2026-07-29T09:29:35.275992Z</time></trkpt>
<trkpt lat="35.5037640" lon="-83.9762535"><time>2026-07-29T09:29:37.201611Z</time></trkpt>
<trkpt lat="35.5038072" lon="-83.9765040"><time>2026-07-29T09:29:38.969080Z</time></trkpt>
<trkpt lat="35.5039545" lon="-83.9772076"><time>2026-07-29T09:29:44.011297Z</time></trkpt>
<trkpt lat="35.5038695" lon="-83.9777358"><time>2026-07-29T09:29:47.764162Z</time></trkpt>
<trkpt lat="35.5038952" lon="-83.9782483"><time>2026-07-29T09:29:51.357352Z</time></trkpt>
<trkpt lat="35.5038362" lon="-83.9786502"><time>2026-07-29T09:29:54.231190Z</time></trkpt>
<trkpt lat="35.5037704" lon="-83.9789872"><time>2026-07-29T09:29:56.683217Z</time></trkpt>
<trkpt lat="35.5038044" lon="-83.9793481"><time>2026-07-29T09:29:59.263119Z</time></trkpt>
<trkpt lat="35.5039237" lon="-83.9796010"><time>2026-07-29T09:30:01.361952Z</time></trkpt>
<trkpt lat="35.5042584" lon="-83.9799042"><time>2026-07-29T09:30:05.086228Z</time></trkpt>
<trkpt lat="35.5043220" lon="-83.9800507"><time>2026-07-29T09:30:06.288500Z</time></trkpt>
<trkpt lat="35.5043076" lon="-83.9801564"><time>2026-07-29T09:30:07.063984Z</time></trkpt>
<trkpt lat="35.5040841" lon="-83.9803732"><time>2026-07-29T09:30:09.646945Z</time></trkpt>
<trkpt lat="35.5039815" lon="-83.9805357"><time>2026-07-29T09:30:11.162337Z</time></trkpt>
<trkpt lat="35.5039355" lon="-83.9808534"><time>2026-07-29T09:30:13.528368Z</time></trkpt>
<trkpt lat="35.5037903" lon="-83.9811975"><time>2026-07-29T09:30:16.396243Z</time></trkpt>
<trkpt lat="35.5037625" lon="-83.9813463"><time>2026-07-29T09:30:17.525643Z</time></trkpt>
<trkpt lat="35.5038040" lon="-83.9814862"><time>2026-07-29T09:30:18.633641Z</time></trkpt>
<trkpt lat="35.5041725" lon="-83.9818492"><time>2026-07-29T09:30:23.025666Z</time></trkpt>
<trkpt lat="35.5045891" lon="-83.9823365"><time>2026-07-29T09:30:28.383350Z</time></trkpt>
<trkpt lat="35.5046549" lon="-83.9825031"><time>2026-07-29T09:30:29.780098Z</time></trkpt>
<trkpt lat="35.5046114" lon="-83.9826679"><time>2026-07-29T09:30:31.088319Z</time></trkpt>
<trkpt lat="35.5044267" lon="-83.9827903"><time>2026-07-29T09:30:33.077522Z</time></trkpt>
<trkpt lat="35.5039003" lon="-83.9830253"><time>2026-07-29T09:30:38.419788Z</time></trkpt>
<trkpt lat="35.5038529" lon="-83.9830896"><time>2026-07-29T09:30:39.087974Z</time></trkpt>
<trkpt lat="35.5038665" lon="-83.9832681"><time>2026-07-29T09:30:40.457056Z</time></trkpt>
<trkpt lat="35.5039814" lon="-83.9833787"><time>2026-07-29T09:30:41.853289Z</time></trkpt>
<trkpt lat="35.5045302" lon="-83.9835420"><time>2026-07-29T09:30:47.316614Z</time></trkpt>
<trkpt lat="35.5054313" lon="-83.9837384"><time>2026-07-29T09:30:56.202244Z</time></trkpt>
<trkpt lat="35.5055851" lon="-83.9838353"><time>2026-07-29T09:30:57.877333Z</time></trkpt>
<trkpt lat="35.5056292" lon="-83.9839476"><time>2026-07-29T09:30:58.847918Z</time></trkpt>
<trkpt lat="35.5056054" lon="-83.9840680"><time>2026-07-29T09:30:59.811315Z</time></trkpt>
<trkpt lat="35.5055119" lon="-83.9842098"><time>2026-07-29T09:31:01.246613Z</time></trkpt>
<trkpt lat="35.5054272" lon="-83.9844513"><time>2026-07-29T09:31:03.306216Z</time></trkpt>
<trkpt lat="35.5054656" lon="-83.9846576"><time>2026-07-29T09:31:04.962367Z</time></trkpt>
<trkpt lat="35.5057034" lon="-83.9849277"><time>2026-07-29T09:31:08.123022Z</time></trkpt>
<trkpt lat="35.5061886" lon="-83.9852757"><time>2026-07-29T09:31:13.645679Z</time></trkpt>
<trkpt lat="35.5065934" lon="-83.9854715"><time>2026-07-29T09:31:17.942368Z</time></trkpt>
<trkpt lat="35.5069406" lon="-83.9855505"><time>2026-07-29T09:31:21.444071Z</time></trkpt>
<trkpt lat="35.5075018" lon="-83.9855602"><time>2026-07-29T09:31:27.022136Z</time></trkpt>
<trkpt lat="35.5077232" lon="-83.9854619"><time>2026-07-29T09:31:29.357638Z</time></trkpt>
<trkpt lat="35.5079998" lon="-83.9853681"><time>2026-07-29T09:31:32.210579Z</time></trkpt>
<trkpt lat="35.5084177" lon="-83.9853107"><time>2026-07-29T09:31:36.401406Z</time></trkpt>
<trkpt lat="35.5087182" lon="-83.9851515"><time>2026-07-29T09:31:39.653067Z</time></trkpt>
<trkpt lat="35.5095912" lon="-83.9851475"><time>2026-07-29T09:31:48.367641Z</time></trkpt>
<trkpt lat="35.5098125" lon="-83.9851939"><time>2026-07-29T09:31:50.607954Z</time></trkpt>
<trkpt lat="35.5099034" lon="-83.9852554"><time>2026-07-29T09:31:51.638321Z</time></trkpt>
<trkpt lat="35.5099647" lon="-83.9853962"><time>2026-07-29T09:31:52.910540Z</time></trkpt>
<trkpt lat="35.5099843" lon="-83.9858665"><time>2026-07-29T09:31:56.640249Z</time></trkpt>
<trkpt lat="35.5101497" lon="-83.9863192"><time>2026-07-29T09:32:00.587007Z</time></trkpt>
<trkpt lat="35.5104030" lon="-83.9866013"><time>2026-07-29T09:32:03.960524Z</time></trkpt>
<trkpt lat="35.5105529" lon="-83.9866698"><time>2026-07-29T09:32:05.551428Z</time></trkpt>
<trkpt lat="35.5109536" lon="-83.9866094"><time>2026-07-29T09:32:09.575518Z</time></trkpt>
<trkpt lat="35.5118129" lon="-83.9863687"><time>2026-07-29T09:32:18.345646Z</time></trkpt>
<trkpt lat="35.5123482" lon="-83.9859916"><time>2026-07-29T09:32:24.448468Z</time></trkpt>
<trkpt lat="35.5131752" lon="-83.9853038"><time>2026-07-29T09:32:34.297174Z</time></trkpt>
<trkpt lat="35.5134504" lon="-83.9851079"><time>2026-07-29T09:32:37.434889Z</time></trkpt>
<trkpt lat="35.5135493" lon="-83.9851120"><time>2026-07-29T09:32:38.416034Z</time></trkpt>
<trkpt lat="35.5136038" lon="-83.9851803"><time>2026-07-29T09:32:39.176574Z</time></trkpt>
<trkpt lat="35.5136137" lon="-83.9852929"><time>2026-07-29T09:32:40.064168Z</time></trkpt>
<trkpt lat="35.5134026" lon="-83.9857011"><time>2026-07-29T09:32:43.875393Z</time></trkpt>
<trkpt lat="35.5125851" lon="-83.9869913"><time>2026-07-29T09:32:56.765152Z</time></trkpt>
<trkpt lat="35.5124603" lon="-83.9872653"><time>2026-07-29T09:32:59.225969Z</time></trkpt>
<trkpt lat="35.5124109" lon="-83.9879655"><time>2026-07-29T09:33:04.687673Z</time></trkpt>
<trkpt lat="35.5124317" lon="-83.9882783"><time>2026-07-29T09:33:07.120579Z</time></trkpt>
<trkpt lat="35.5125417" lon="-83.9884658"><time>2026-07-29T09:33:08.923812Z</time></trkpt>
<trkpt lat="35.5126751" lon="-83.9884991"><time>2026-07-29T09:33:10.246288Z</time></trkpt>
<trkpt lat="35.5129816" lon="-83.9883995"><time>2026-07-29T09:33:13.315645Z</time></trkpt>
<trkpt lat="35.5133943" lon="-83.9883304"><time>2026-07-29T09:33:17.341041Z</time></trkpt>
<trkpt lat="35.5138814" lon="-83.9883783"><time>2026-07-29T09:33:22.050606Z</time></trkpt>
<trkpt lat="35.5141794" lon="-83.9884011"><time>2026-07-29T09:33:24.919235Z</time></trkpt>
<trkpt lat="35.5144152" lon="-83.9883636"><time>2026-07-29T09:33:27.195342Z</time></trkpt>
<trkpt lat="35.5153559" lon="-83.9881311"><time>2026-07-29T09:33:36.344288Z</time></trkpt>
<trkpt lat="35.5155788" lon="-83.9881450"><time>2026-07-29T09:33:38.466780Z</time></trkpt>
<trkpt lat="35.5158059" lon="-83.9882496"><time>2026-07-29T09:33:40.757772Z</time></trkpt>
<trkpt lat="35.5163637" lon="-83.9887208"><time>2026-07-29T09:33:47.095640Z</time></trkpt>
<trkpt lat="35.5166309" lon="-83.9888849"><time>2026-07-29T09:33:49.890562Z</time></trkpt>
<trkpt lat="35.5169335" lon="-83.9888839"><time>2026-07-29T09:33:52.725217Z</time></trkpt>
<trkpt lat="35.5173396" lon="-83.9888115"><time>2026-07-29T09:33:56.551793Z</time></trkpt>
<trkpt lat="35.5180038" lon="-83.9887351"><time>2026-07-29T09:34:02.748964Z</time></trkpt>
<trkpt lat="35.5184700" lon="-83.9884936"><time>2026-07-29T09:34:07.412227Z</time></trkpt>
<trkpt lat="35.5187848" lon="-83.9883260"><time>2026-07-29T09:34:10.560354Z</time></trkpt>
<trkpt lat="35.5190333" lon="-83.9883007"><time>2026-07-29T09:34:12.847332Z</time></trkpt>
<trkpt lat="35.5197901" lon="-83.9883971"><time>2026-07-29T09:34:19.794170Z</time></trkpt>
<trkpt lat="35.5199832" lon="-83.9884846"><time>2026-07-29T09:34:21.659646Z</time></trkpt>
<trkpt lat="35.5201319" lon="-83.9886980"><time>2026-07-29T09:34:23.698187Z</time></trkpt>
<trkpt lat="35.5202541" lon="-83.9891828"><time>2026-07-29T09:34:27.331428Z</time></trkpt>
<trkpt lat="35.5204117" lon="-83.9901072"><time>2026-07-29T09:34:34.052900Z</time></trkpt>
<trkpt lat="35.5205193" lon="-83.9903605"><time>2026-07-29T09:34:36.086064Z</time></trkpt>
<trkpt lat="35.5207484" lon="-83.9905660"><time>2026-07-29T09:34:38.582885Z</time></trkpt>
<trkpt lat="35.5216648" lon="-83.9910370"><time>2026-07-29T09:34:47.329392Z</time></trkpt>
<trkpt lat="35.5219394" lon="-83.9913015"><time>2026-07-29T09:34:50.368436Z</time></trkpt>
<trkpt lat="35.5224519" lon="-83.9918692"><time>2026-07-29T09:34:56.338398Z</time></trkpt>
<trkpt lat="35.5239089" lon="-83.9929424"><time>2026-07-29T09:35:11.033378Z</time></trkpt>
<trkpt lat="35.5242292" lon="-83.9931347"><time>2026-07-29T09:35:14.107568Z</time></trkpt>
<trkpt lat="35.5244397" lon="-83.9932166"><time>2026-07-29T09:35:16.007089Z</time></trkpt>
<trkpt lat="35.5247518" lon="-83.9932957"><time>2026-07-29T09:35:18.738324Z</time></trkpt>
<trkpt lat="35.5252058" lon="-83.9933194"><time>2026-07-29T09:35:22.617182Z</time></trkpt>
<trkpt lat="35.5255424" lon="-83.9932775"><time>2026-07-29T09:35:25.489903Z</time></trkpt>
<trkpt lat="35.5258889" lon="-83.9931851"><time>2026-07-29T09:35:28.482616Z</time></trkpt>
<trkpt lat="35.5261857" lon="-83.9930383"><time>2026-07-29T09:35:31.162876Z</time></trkpt>
<trkpt lat="35.5267626" lon="-83.9926505"><time>2026-07-29T09:35:36.630836Z</time></trkpt>
<trkpt lat="35.5274774" lon="-83.9921397"><time>2026-07-29T09:35:43.467654Z</time></trkpt>
<trkpt lat="35.5282761" lon="-83.9916537"><time>2026-07-29T09:35:50.809809Z</time></trkpt>
<trkpt lat="35.5291771" lon="-83.9912643"><time>2026-07-29T09:35:58.655350Z</time></trkpt>
<trkpt lat="35.5300218" lon="-83.9910417"><time>2026-07-29T09:36:05.727674Z</time></trkpt>
<trkpt lat="35.5304235" lon="-83.9910198"><time>2026-07-29T09:36:09.006230Z</time></trkpt>
<trkpt lat="35.5309417" lon="-83.9910723"><time>2026-07-29T09:36:13.223853Z</time></trkpt>
<trkpt lat="35.5313200" lon="-83.9911587"><time>2026-07-29T09:36:16.327133Z</time></trkpt>
<trkpt lat="35.5321264" lon="-83.9914553"><time>2026-07-29T09:36:23.073412Z</time></trkpt>
<trkpt lat="35.5329369" lon="-83.9917852"><time>2026-07-29T09:36:29.879227Z</time></trkpt>
<trkpt lat="35.5333876" lon="-83.9919720"><time>2026-07-29T09:36:33.651496Z</time></trkpt>
<trkpt lat="35.5340894" lon="-83.9922727"><time>2026-07-29T09:36:39.515902Z</time></trkpt>
<trkpt lat="35.5352732" lon="-83.9928521"><time>2026-07-29T09:36:49.513397Z</time></trkpt>
<trkpt lat="35.5362388" lon="-83.9934314"><time>2026-07-29T09:36:57.890877Z</time></trkpt>
<trkpt lat="35.5373586" lon="-83.9942156"><time>2026-07-29T09:37:07.877217Z</time></trkpt>
<trkpt lat="35.5383260" lon="-83.9949119"><time>2026-07-29T09:37:16.519786Z</time></trkpt>
<trkpt lat="35.5389241" lon="-83.9953331"><time>2026-07-29T09:37:21.809665Z</time></trkpt>
<trkpt lat="35.5394251" lon="-83.9956732"><time>2026-07-29T09:37:26.182557Z</time></trkpt>
<trkpt lat="35.5398120" lon="-83.9958914"><time>2026-07-29T09:37:29.424710Z</time></trkpt>
<trkpt lat="35.5401700" lon="-83.9960244"><time>2026-07-29T09:37:32.266504Z</time></trkpt>
<trkpt lat="35.5406014" lon="-83.9960833"><time>2026-07-29T09:37:35.555488Z</time></trkpt>
<trkpt lat="35.5410215" lon="-83.9960452"><time>2026-07-29T09:37:38.733492Z</time></trkpt>
<trkpt lat="35.5414565" lon="-83.9959267"><time>2026-07-29T09:37:42.076399Z</time></trkpt>
<trkpt lat="35.5418880" lon="-83.9957070"><time>2026-07-29T09:37:45.556353Z</time></trkpt>
<trkpt lat="35.5423915" lon="-83.9952830"><time>2026-07-29T09:37:50.064098Z</time></trkpt>
<trkpt lat="35.5433140" lon="-83.9943378"><time>2026-07-29T09:37:58.875585Z</time></trkpt>
<trkpt lat="35.5443983" lon="-83.9932047"><time>2026-07-29T09:38:09.270839Z</time></trkpt>
<trkpt lat="35.5453353" lon="-83.9923257"><time>2026-07-29T09:38:17.855805Z</time></trkpt>
<trkpt lat="35.5456829" lon="-83.9920801"><time>2026-07-29T09:38:20.772918Z</time></trkpt>
<trkpt lat="35.5461826" lon="-83.9918176"><time>2026-07-29T09:38:24.720217Z</time></trkpt>
<trkpt lat="35.5467818" lon="-83.9915851"><time>2026-07-29T09:38:29.273681Z</time></trkpt>
<trkpt lat="35.5472785" lon="-83.9914818"><time>2026-07-29T09:38:32.915881Z</time></trkpt>
<trkpt lat="35.5477670" lon="-83.9914622"><time>2026-07-29T09:38:36.438536Z</time></trkpt>
<trkpt lat="35.5483616" lon="-83.9915081"><time>2026-07-29T09:38:40.716098Z</time></trkpt>
<trkpt lat="35.5492507" lon="-83.9917734"><time>2026-07-29T09:38:47.252541Z</time></trkpt>
<trkpt lat="35.5502555" lon="-83.9923201"><time>2026-07-29T09:38:55.053382Z</time></trkpt>
<trkpt lat="35.5515875" lon="-83.9931825"><time>2026-07-29T09:39:05.689191Z</time></trkpt>
<trkpt lat="35.5525608" lon="-83.9940500"><time>2026-07-29T09:39:14.126173Z</time></trkpt>
<trkpt lat="35.5536718" lon="-83.9951819"><time>2026-07-29T09:39:24.202759Z</time></trkpt>
<trkpt lat="35.5543147" lon="-83.9960584"><time>2026-07-29T09:39:30.860475Z</time></trkpt>
<trkpt lat="35.5550016" lon="-83.9974150"><time>2026-07-29T09:39:39.806848Z</time></trkpt>
<trkpt lat="35.5553923" lon="-83.9983105"><time>2026-07-29T09:39:45.470287Z</time></trkpt>
<trkpt lat="35.5556546" lon="-83.9991477"><time>2026-07-29T09:39:50.443130Z</time></trkpt>
<trkpt lat="35.5558289" lon="-84.0002036"><time>2026-07-29T09:39:56.383823Z</time></trkpt>
<trkpt lat="35.5558997" lon="-84.0028822"><time>2026-07-29T09:40:11.104303Z</time></trkpt>
<trkpt lat="35.5559674" lon="-84.0038543"><time>2026-07-29T09:40:16.449539Z</time></trkpt>
<trkpt lat="35.5562841" lon="-84.0052826"><time>2026-07-29T09:40:24.551951Z</time></trkpt>
<trkpt lat="35.5570377" lon="-84.0074415"><time>2026-07-29T09:40:37.406134Z</time></trkpt>
<trkpt lat="35.5573978" lon="-84.0087767"><time>2026-07-29T09:40:45.072588Z</time></trkpt>
<trkpt lat="35.5574312" lon="-84.0096437"><time>2026-07-29T09:40:49.779937Z</time></trkpt>
</trkseg></trk></gpx>